[Satellite]
VERSION=1.1
NAME=IRIDIUM 42 [+]
NICKNAME=IRIDIUM 42 [+]
TLE1=1 25077U 97077A   15055.41113359  .00000254  00000-0  83587-4 0  9990
TLE2=2 25077  86.3995  14.6631 0002318 106.7449 253.4002 14.34333612901230
